[{"OBJECT_NAME":"SAUDISAT 5B","OBJECT_ID":"2018-102C","EPOCH":"2026-03-09T22:59:17.457216","MEAN_MOTION":15.27248504,"ECCENTRICITY":0.00120577,"INCLINATION":97.3281,"RA_OF_ASC_NODE":135.3629,"ARG_OF_PERICENTER":124.0958,"MEAN_ANOMALY":236.1427,"EPHEMERIS_TYPE":0,"CLASSIFICATION_TYPE":"U","NORAD_CAT_ID":43833,"ELEMENT_SET_NO":999,"REV_AT_EPOCH":40064,"BSTAR":0.00024926623,"MEAN_MOTION_DOT":6.596e-5,"MEAN_MOTION_DDOT":0},{"OBJECT_NAME":"STARLINK-35497","OBJECT_ID":"2025-245H","EPOCH":"2026-03-09T21:48:47.775456","MEAN_MOTION":15.3022131,"ECCENTRICITY":0.00010614,"INCLINATION":53.1589,"RA_OF_ASC_NODE":282.6277,"ARG_OF_PERICENTER":131.5036,"MEAN_ANOMALY":228.6056,"EPHEMERIS_TYPE":0,"CLASSIFICATION_TYPE":"U","NORAD_CAT_ID":66241,"ELEMENT_SET_NO":999,"REV_AT_EPOCH":2124,"BSTAR":0.0011578671,"MEAN_MOTION_DOT":0.00034114,"MEAN_MOTION_DDOT":0}]
